STARLINK-37384          
1 69460U 26127T   26169.91668981 -.00026778  00000+0 -13244-3 0  9993
2 69460  53.1583 253.4983 0000980  75.1125 217.6578 15.80891147  2927
STARLINK-37707          
1 69461U 26127U   26169.91668981 -.00060496  00000+0 -30486-3 0  9996
2 69461  53.1586 253.4328 0000790  84.7375 239.6263 15.80891427  2922
STARLINK-37525          
1 69462U 26127V   26169.91668981 -.00023475  00000+0 -11568-3 0  9993
2 69462  53.1588 253.4310 0001122  70.8335 254.3395 15.80879815  2925
STARLINK-37526          
1 69463U 26127W   26169.91668981 -.00133211  00000+0 -67925-3 0  9992
2 69463  53.1587 253.4236 0000964  62.7130 266.0010 15.80954513  2921
STARLINK-37574          
1 69464U 26127X   26169.91668981 -.01480978  00000+0 -80560-2 0  9998
2 69464  53.1587 253.3439 0000610  72.8323 294.3727 15.81996531  2926
STARLINK-37535          
1 69465U 26127Y   26169.91668981  .00004287  00000+0  25254-4 0  9992
2 69465  53.1591 253.3645 0000821  43.6324 313.5427 15.80866896  2922
STARLINK-37583          
1 69466U 26127Z   26169.91668981 -.01936378  00000+0 -99244-2 0  9999
2 69466  53.1579 253.2439 0000878  77.9085 337.2033 15.83559502  2927
STARLINK-37546          
1 69467U 26127AA  26169.91668981 -.02129831  00000+0 -10734-1 0  9995
2 69467  53.1579 253.2200 0001142  51.2913  15.2401 15.84227727  2928
STARLINK-37532          
1 69468U 26127AB  26169.91668981 -.02100516  00000+0 -11155-1 0  9993
2 69468  53.1583 253.2276 0000809  55.7938   6.9230 15.83095465  2920
STARLINK-37708          
1 69469U 26127AC  26169.91668981 -.02112832  00000+0 -11083-1 0  9998
2 69469  53.1576 253.2127 0000807  81.8646 347.8739 15.83374009  2927
STARLINK-37686          
1 69470U 26127AD  26169.91668981 -.01957733  00000+0 -99552-2 0  9994
2 69470  53.1581 253.1909 0000760  73.5534   7.0141 15.83759507  2926
STARLINK-37451          
1 69471U 26127AE  26169.91668981 -.02236779  00000+0 -11158-1 0  9991
2 69471  53.1577 253.1701 0001036  43.6645  46.5508 15.84625486  2924
DTC TEST OBJECT A       
1 69472U 26128A   26169.83847245  .00021253  00000+0  30728-3 0  9997
2 69472  54.9939 297.4006 0008615 295.5156  64.4988 15.55903712  1480
DTC TEST OBJECT B       
1 69473U 26128B   26169.77210822  .00028400  00000+0  40095-3 0  9995
2 69473  55.0030 297.6924 0008674 296.1431  63.8713 15.56373019  1463
TJS-25                  
1 69474U 26129A   26162.48255804  .00007407  00000+0  19774-2 0  9990
2 69474  16.5302  30.5351 7751889 199.9639  91.9387  1.72502163    78
STARLINK-37816          
1 69478U 26131A   26168.75003472 -.01093379  37146-3 -26551-2 0  9997
2 69478  97.2824 188.9762 0001149  80.4448  35.9636 15.96316495  2106
STARLINK-37878          
1 69479U 26131B   26168.41668981 -.00976144  30334-3 -22776-2 0  9999
2 69479  97.2817 188.6149 0000872  97.2660 265.8231 15.97036350  1316
STARLINK-37817          
1 69480U 26131C   26168.75003472 -.01095329  37360-3 -26268-2 0  9990
2 69480  97.2822 188.9776 0001181  77.8521  42.4103 15.96547425  2101
STARLINK-37727          
1 69481U 26131D   26168.75003472 -.01098784  37629-3 -26175-2 0  9994
2 69481  97.2819 188.9784 0001174  76.6396  45.7078 15.96671350  2108
STARLINK-37814          
1 69482U 26131E   26168.75003472 -.01099082  37691-3 -26031-2 0  9997
2 69482  97.2821 188.9793 0001181  77.2384  46.9070 15.96778578  2109
STARLINK-37869          
1 69483U 26131F   26168.75003472 -.01107172  38261-3 -26036-2 0  9997
2 69483  97.2820 188.9802 0001149  76.2430  50.1342 15.96910777  2103
STARLINK-37873          
1 69484U 26131G   26168.75003472 -.01109103  38431-3 -25920-2 0  9994
2 69484  97.2820 188.9809 0001160  76.2701  51.9896 15.97024990  2102
STARLINK-37892          
1 69485U 26131H   26168.75003472 -.01099303  37839-3 -25573-2 0  9990
2 69485  97.2819 188.9816 0001149  78.7411  50.8476 15.97108252  2107
STARLINK-37893          
1 69486U 26131J   26168.75003472 -.01102657  38101-3 -25487-2 0  9995
2 69486  97.2818 188.9823 0001165  77.5835  53.9573 15.97225915  2186
STARLINK-37842          
1 69487U 26131K   26168.83335648 -.01052755  34935-3 -24442-2 0  9992
2 69487  97.2817 189.0737 0001069  79.0004 173.2061 15.97137733  2111
STARLINK-37449          
1 69488U 26131L   26168.83335648 -.01055018  35119-3 -24339-2 0  9998
2 69488  97.2818 189.0744 0001093  79.7938 174.4151 15.97254920  2202
STARLINK-37831          
1 69489U 26131M   26168.41668981 -.00995223  31852-3 -21761-2 0  9998
2 69489  97.2813 188.6216 0000933  90.8599 290.4087 15.98221671  1312
STARLINK-37879          
1 69490U 26131N   26168.83335648 -.01059963  35514-3 -24145-2 0  9998
2 69490  97.2816 189.0761 0001097  79.1630 178.9501 15.97486806  2117
STARLINK-37856          
1 69491U 26131P   26168.83335648 -.01063313  35768-3 -24065-2 0  9995
2 69491  97.2816 189.0765 0001113  78.4450 181.6887 15.97605672  2171
